NORAD_CAT_ID,OBJECT_NAME,OBJECT_TYPE,EPOCH,MEAN_MOTION,ECCENTRICITY,INCLINATION,RA_OF_ASC_NODE,ARG_OF_PERICENTER,MEAN_ANOMALY,BSTAR,MEAN_MOTION_DOT,MEAN_MOTION_DDOT,TLE_LINE0,TLE_LINE1,TLE_LINE2,SEMIMAJOR_AXIS,PERIOD,APOGEE,PERIGEE,DECAYED
50806.0,STARLINK-3335,PAYLOAD,2022-10-20 07:27:17,15.08838017,0.0002338,53.2169,309.4307,37.6541,322.4615,0.00015755,2.22e-05,0.0,0 STARLINK-3335,1 50806U 22001D   22293.31062119  .00002220  00000-0  15755-3 0  9997,2 50806  53.2169 309.4307 0002338  37.6541 322.4615 15.08838017 43893,6917.886,95.438,541.369,538.134,0.0
50806.0,STARLINK-3335,PAYLOAD,2022-10-20 18:34:59,15.08846178,0.0002413,53.217,307.3492,39.0627,321.0539,0.0001391,1.927e-05,0.0,0 STARLINK-3335,1 50806U 22001D   22293.77429632  .00001927  00000-0  13910-3 0  9998,2 50806  53.2170 307.3492 0002413  39.0627 321.0539 15.08846178 45239,6917.861999999999,95.437,541.396,538.057,0.0
50806.0,STARLINK-3335,PAYLOAD,2022-10-21 07:18:04,15.08840468,0.0002435999999999,53.2169,304.9705,41.8247,318.2931,0.0001137,1.522e-05,0.0,0 STARLINK-3335,1 50806U 22001D   22294.30422065  .00001522  00000-0  11370-3 0  9990,2 50806  53.2169 304.9705 0002436  41.8247 318.2931 15.08840468 45310,6917.879,95.438,541.429,538.059,0.0
50806.0,STARLINK-3335,PAYLOAD,2022-10-21 18:25:46,15.08842421,0.0002448,53.2169,302.8887,43.4063,316.7121,9.2226e-05,1.18e-05,0.0,0 STARLINK-3335,1 50806U 22001D   22294.76789926  .00001180  00000-0  92226-4 0  9992,2 50806  53.2169 302.8887 0002448  43.4063 316.7121 15.08842421 44117,6917.873000000001,95.437,541.431,538.044,0.0
50806.0,STARLINK-3335,PAYLOAD,2022-10-22 07:08:51,15.08842857,0.0002454,53.217,300.5103,40.6087,319.5088,-4.4158e-06,-3.59e-06,0.0,0 STARLINK-3335,1 50806U 22001D   22295.29782036 -.00000359  00000-0 -44158-5 0  9997,2 50806  53.2170 300.5103 0002454  40.6087 319.5088 15.08842857 44191,6917.871999999999,95.437,541.434,538.039,0.0
50806.0,STARLINK-3335,PAYLOAD,2022-10-23 05:24:15,15.08843534,0.0002539,53.2176,296.3485,43.2882,316.8309,4.2882e-05,3.94e-06,0.0,0 STARLINK-3335,1 50806U 22001D   22296.22517655  .00000394  00000-0  42882-4 0  9992,2 50806  53.2176 296.3485 0002539  43.2882 316.8309 15.08843534 45604,6917.87,95.437,541.491,537.9780000000002,0.0
50806.0,STARLINK-3335,PAYLOAD,2022-10-23 06:59:38,15.08845409,0.0002343,53.2176,296.0512,41.3351,318.7818,5.9301e-05,6.56e-06,0.0,0 STARLINK-3335,1 50806U 22001D   22296.29141526  .00000656  00000-0  59301-4 0  9994,2 50806  53.2176 296.0512 0002343  41.3351 318.7818 15.08845409 44344,6917.864000000001,95.437,541.35,538.1080000000002,0.0
50806.0,STARLINK-3335,PAYLOAD,2022-10-23 16:31:56,15.08851358,0.0002551,53.2173,294.2663,41.5863,318.5323,6.9514e-05,8.18e-06,0.0,0 STARLINK-3335,1 50806U 22001D   22296.68885003  .00000818  00000-0  69514-4 0  9999,2 50806  53.2173 294.2663 0002551  41.5863 318.5323 15.08851358 44405,6917.846,95.437,541.475,537.946,0.0
50806.0,STARLINK-3335,PAYLOAD,2022-10-24 10:01:11,15.08838164,0.0002544,53.2178,290.997,37.5546,322.5623,2.4441e-05,1.01e-06,0.0,0 STARLINK-3335,1 50806U 22001D   22297.41749850  .00000101  00000-0  24441-4 0  9995,2 50806  53.2178 290.9970 0002544  37.5546 322.5623 15.08838164 44519,6917.886,95.438,541.511,537.991,0.0
50806.0,STARLINK-3335,PAYLOAD,2022-10-24 16:22:44,15.08846119,0.0001792,53.2179,289.8076,63.2925,296.8251,-9.7301e-05,-1.837e-05,0.0,0 STARLINK-3335,1 50806U 22001D   22297.68245454 -.00001837  00000-0 -97301-4 0  9999,2 50806  53.2179 289.8076 0001792  63.2925 296.8251 15.08846119 45829,6917.861999999999,95.437,540.966,538.487,0.0
50806.0,STARLINK-3335,PAYLOAD,2022-10-25 00:19:41,15.08823953,0.0002315,53.2174,288.3184,45.2908,314.8272,-0.00013531,-2.44e-05,0.0,0 STARLINK-3335,1 50806U 22001D   22298.01367644 -.00002440  00000-0 -13531-3 0  9996,2 50806  53.2174 288.3184 0002315  45.2908 314.8272 15.08823953 45871,6917.929,95.439,541.396,538.193,0.0
50806.0,STARLINK-3335,PAYLOAD,2022-10-25 09:52:00,15.08830245,0.0002274,53.2173,286.5345,44.816,315.3015,-7.3775e-05,-1.462e-05,0.0,0 STARLINK-3335,1 50806U 22001D   22298.41111300 -.00001462  00000-0 -73775-4 0  9996,2 50806  53.2173 286.5345 0002274  44.8160 315.3015 15.08830245 44667,6917.91,95.438,541.3480000000002,538.202,0.0
50806.0,STARLINK-3335,PAYLOAD,2022-10-26 03:21:14,15.0883793,0.0002355999999999,53.2174,283.2636,44.1183,315.9997,3.2926e-05,2.36e-06,0.0,0 STARLINK-3335,1 50806U 22001D   22299.13974799  .00000236  00000-0  32926-4 0  9994,2 50806  53.2174 283.2636 0002356  44.1183 315.9997 15.08837930 46041,6917.887,95.438,541.382,538.122,0.0
50806.0,STARLINK-3335,PAYLOAD,2022-10-26 08:07:23,15.08840678,0.0002349,53.2172,282.3713,44.984,315.1342,5.4614e-05,5.81e-06,0.0,0 STARLINK-3335,1 50806U 22001D   22299.33846632  .00000581  00000-0  54614-4 0  9991,2 50806  53.2172 282.3713 0002349  44.9840 315.1342 15.08840678 44806,6917.878000000002,95.438,541.368,538.118,0.0
50806.0,STARLINK-3335,PAYLOAD,2022-10-26 16:04:19,15.08836351,0.0002437,53.2169,280.8841,39.2898,320.8271,0.00020307,2.945e-05,0.0,0 STARLINK-3335,1 50806U 22001D   22299.66966644  .00002945  00000-0  20307-3 0  9990,2 50806  53.2169 280.8841 0002437  39.2898 320.8271 15.08836351 44857,6917.892,95.438,541.442,538.071,0.0
50806.0,STARLINK-3335,PAYLOAD,2022-10-27 03:12:02,15.08829156,0.0002431,53.2178,278.8031,43.3965,316.7218,9.7771e-05,1.268e-05,0.0,0 STARLINK-3335,1 50806U 22001D   22300.13335920  .00001268  00000-0  97771-4 0  9999,2 50806  53.2178 278.8031 0002431  43.3965 316.7218 15.08829156 46199,6917.9140000000025,95.438,541.46,538.097,0.0
50806.0,STARLINK-3335,PAYLOAD,2022-10-27 07:58:11,15.08826705,0.0002423999999999,53.2176,277.9109,42.9936,317.1245,7.1479e-05,8.49e-06,0.0,0 STARLINK-3335,1 50806U 22001D   22300.33208303  .00000849  00000-0  71479-4 0  9996,2 50806  53.2176 277.9109 0002424  42.9936 317.1245 15.08826705 44952,6917.920999999999,95.438,541.4630000000002,538.109,0.0
50806.0,STARLINK-3335,PAYLOAD,2022-10-27 15:55:07,15.08834081,0.0002336999999999,53.2166,276.4231,40.9824,319.1344,0.00010194,1.334e-05,0.0,0 STARLINK-3335,1 50806U 22001D   22300.66327910  .00001334  00000-0  10194-3 0  9994,2 50806  53.2166 276.4231 0002337  40.9824 319.1344 15.08834081 45003,6917.898,95.438,541.38,538.1469999999998,0.0
50806.0,STARLINK-3335,PAYLOAD,2022-10-27 22:16:39,15.08841757,0.0002206,53.2163,275.2319,41.2414,318.8745,0.00012683,1.731e-05,0.0,0 STARLINK-3335,1 50806U 22001D   22300.92823389  .00001731  00000-0  12683-3 0  9990,2 50806  53.2163 275.2319 0002206  41.2414 318.8745 15.08841757 46312,6917.875,95.437,541.266,538.214,0.0
50806.0,STARLINK-3335,PAYLOAD,2022-10-28 04:38:11,15.08850338,0.0002346,53.2168,274.0433,42.6101,317.5072,0.00013059,1.791e-05,0.0,0 STARLINK-3335,1 50806U 22001D   22301.19318877  .00001791  00000-0  13059-3 0  9995,2 50806  53.2168 274.0433 0002346  42.6101 317.5072 15.08850338 45081,6917.849,95.437,541.337,538.091,0.0
50806.0,STARLINK-3335,PAYLOAD,2022-10-28 15:45:52,15.08858728,0.0002346999999999,53.2168,271.9615,43.7005,316.4172,0.00019499,2.818e-05,0.0,0 STARLINK-3335,1 50806U 22001D   22301.65685944  .00002818  00000-0  19499-3 0  9993,2 50806  53.2168 271.9615 0002347  43.7005 316.4172 15.08858728 45153,6917.823,95.436,541.312,538.065,0.0
50806.0,STARLINK-3335,PAYLOAD,2022-10-29 04:28:58,15.08851468,0.0002355999999999,53.2168,269.5839,42.75100000000001,317.3665,0.0003076,4.612e-05,0.0,0 STARLINK-3335,1 50806U 22001D   22302.18678543  .00004612  00000-0  30760-3 0  9997,2 50806  53.2168 269.5839 0002356  42.7510 317.3665 15.08851468 46505,6917.845,95.437,541.34,538.08,0.0
50806.0,STARLINK-3335,PAYLOAD,2022-10-30 05:55:08,15.08843386,0.0002230999999999,53.2172,264.8242,50.5557,309.5633,-3.4563e-05,-8.38e-06,0.0,0 STARLINK-3335,1 50806U 22001D   22303.24662624 -.00000838  00000-0 -34563-4 0  9992,2 50806  53.2172 264.8242 0002231  50.5557 309.5633 15.08843386 45390,6917.87,95.437,541.278,538.192,0.0
50806.0,STARLINK-3335,PAYLOAD,2022-10-30 21:48:59,15.08847633,0.0002340999999999,53.2166,261.8512,39.7235,320.3928,-1.8553e-05,-5.84e-06,0.0,0 STARLINK-3335,1 50806U 22001D   22303.90901944 -.00000584  00000-0 -18553-4 0  9995,2 50806  53.2166 261.8512 0002341  39.7235 320.3928 15.08847633 45492,6917.857,95.437,541.342,538.1030000000002,0.0
50806.0,STARLINK-3335,PAYLOAD,2022-10-31 07:21:18,15.08841982,0.0002242,53.2164,260.067,36.9157,323.1989,-7.8162e-05,-1.532e-05,0.0,0 STARLINK-3335,1 50806U 22001D   22304.30646411 -.00001532  00000-0 -78162-4 0  9991,2 50806  53.2164 260.0670 0002242  36.9157 323.1989 15.08841982 45554,6917.874,95.437,541.29,538.188,0.0
50806.0,STARLINK-3335,PAYLOAD,2022-10-31 21:39:46,15.0883654,0.0002163,53.2164,257.3906,34.642,325.4713,4.4895e-05,4.26e-06,0.0,0 STARLINK-3335,1 50806U 22001D   22304.90262461  .00000426  00000-0  44895-4 0  9991,2 50806  53.2164 257.3906 0002163  34.6420 325.4713 15.08836540 46910,6917.891,95.438,541.252,538.26,0.0
50806.0,STARLINK-3335,PAYLOAD,2022-11-01 02:25:56,15.08837932,0.0002141,53.2167,256.4985,35.9354,324.1782,5.0428e-05,5.14e-06,0.0,0 STARLINK-3335,1 50806U 22001D   22305.10134388  .00000514  00000-0  50428-4 0  9997,2 50806  53.2167 256.4985 0002141  35.9354 324.1782 15.08837932 45676,6917.887,95.438,541.2330000000002,538.271,0.0
50806.0,STARLINK-3335,PAYLOAD,2022-11-01 13:33:38,15.08839667,0.0002145,53.2166,254.4169,36.6222,323.4917,2.4578e-05,1.03e-06,0.0,0 STARLINK-3335,1 50806U 22001D   22305.56502427  .00000103  00000-0  24578-4 0  9991,2 50806  53.2166 254.4169 0002145  36.6222 323.4917 15.08839667 45740,6917.880999999999,95.438,541.23,538.263,0.0
50806.0,STARLINK-3335,PAYLOAD,2022-11-02 05:27:29,15.08839963,0.0002147,53.2168,251.4433,36.5728,323.541,5.7843e-05,6.32e-06,0.0,0 STARLINK-3335,1 50806U 22001D   22306.22742428  .00000632  00000-0  57843-4 0  9990,2 50806  53.2168 251.4433 0002147  36.5728 323.5410 15.08839963 47116,6917.880999999999,95.438,541.231,538.26,0.0
